[{"OBJECT_NAME":"STARLINK-30865","OBJECT_ID":"2023-170W","EPOCH":"2026-03-09T00:00:04.000320","MEAN_MOTION":15.26709308,"ECCENTRICITY":0.0001357,"INCLINATION":42.999,"RA_OF_ASC_NODE":186.7067,"ARG_OF_PERICENTER":243.4599,"MEAN_ANOMALY":281.8761,"EPHEMERIS_TYPE":0,"CLASSIFICATION_TYPE":"U","NORAD_CAT_ID":58226,"ELEMENT_SET_NO":999,"REV_AT_EPOCH":574,"BSTAR":0.0002482558,"MEAN_MOTION_DOT":6.399e-5,"MEAN_MOTION_DDOT":0},{"OBJECT_NAME":"FLOCK 4G-31","OBJECT_ID":"2025-009AV","EPOCH":"2026-03-09T17:55:44.365728","MEAN_MOTION":15.26963037,"ECCENTRICITY":5.975e-5,"INCLINATION":97.4007,"RA_OF_ASC_NODE":151.027,"ARG_OF_PERICENTER":42.5998,"MEAN_ANOMALY":317.5288,"EPHEMERIS_TYPE":0,"CLASSIFICATION_TYPE":"U","NORAD_CAT_ID":62652,"ELEMENT_SET_NO":999,"REV_AT_EPOCH":6372,"BSTAR":0.00048078603,"MEAN_MOTION_DOT":0.00012662,"MEAN_MOTION_DDOT":0}]
